SHIYAN-1 (SY-1)         
1 28220U 04012A   26068.73650539  .00016393  00000+0  54854-3 0  9991
2 28220  97.8764 140.5238 0005873  23.6952 336.4557 15.31043463195862
STARLINK-35905          
1 67048U 25294U   26067.28562897  .00045128  00000+0  16404-2 0  9991
2 67048  43.0005  46.0731 0001091 271.0703  89.0024 15.27561392 14583
